{
  "type": "FeatureCollection",
  "features": [
    {
      "type": "Feature",
      "properties": {
        "norad_id": 66643,
        "name": "STARLINK-35918",
        "group": "last-30-days",
        "lat": 52.49328115135659,
        "lon": -61.493161427238384,
        "alt_km": 385.40617823318644,
        "timestamp": "2025-12-10T20:49:51.345908+00:00",
        "meta_object_name": "STARLINK-35918",
        "meta_object_id": "2025-271AC",
        "meta_epoch": "2025-12-10T14:00:03.000384",
        "meta_mean_motion": 15.59336382,
        "meta_eccentricity": 0.00010681,
        "meta_inclination": 53.1602,
        "meta_ra_of_asc_node": 197.5257,
        "meta_arg_of_pericenter": 125.3502,
        "meta_mean_anomaly": 174.2964,
        "meta_ephemeris_type": 0,
        "meta_classification_type": "U",
        "meta_norad_cat_id": 66643,
        "meta_element_set_no": 999,
        "meta_rev_at_epoch": 389,
        "meta_bstar": -0.028058244,
        "meta_mean_motion_dot": -0.01979536,
        "meta_mean_motion_ddot": 0,
        "tle_line1": "1 66643U 25271AC  25344.58336806 -.01979536  00000+0 -28058-1 0  9994",
        "tle_line2": "2 66643  53.1602 197.5257 0001068 125.3502 174.2964 15.59336382  3891"
      },
      "geometry": {
        "type": "Point",
        "coordinates": [
          -61.493161427238384,
          52.49328115135659
        ]
      }
    },
    {
      "type": "Feature",
      "properties": {
        "norad_id": 66644,
        "name": "STARLINK-35938",
        "group": "last-30-days",
        "lat": 52.124132146248506,
        "lon": -58.41623410835634,
        "alt_km": 385.46070569761105,
        "timestamp": "2025-12-10T20:49:51.345918+00:00",
        "meta_object_name": "STARLINK-35938",
        "meta_object_id": "2025-271AD",
        "meta_epoch": "2025-12-10T14:00:03.000384",
        "meta_mean_motion": 15.59333944,
        "meta_eccentricity": 0.00010486,
        "meta_inclination": 53.1601,
        "meta_ra_of_asc_node": 197.5216,
        "meta_arg_of_pericenter": 126.4078,
        "meta_mean_anomaly": 175.1556,
        "meta_ephemeris_type": 0,
        "meta_classification_type": "U",
        "meta_norad_cat_id": 66644,
        "meta_element_set_no": 999,
        "meta_rev_at_epoch": 389,
        "meta_bstar": -0.027985059,
        "meta_mean_motion_dot": -0.0197483,
        "meta_mean_motion_ddot": 0,
        "tle_line1": "1 66644U 25271AD  25344.58336806 -.01974830  00000+0 -27985-1 0  9995",
        "tle_line2": "2 66644  53.1601 197.5216 0001048 126.4078 175.1556 15.59333944  3892"
      },
      "geometry": {
        "type": "Point",
        "coordinates": [
          -58.41623410835634,
          52.124132146248506
        ]
      }
    },
    {
      "type": "Feature",
      "properties": {
        "norad_id": 66645,
        "name": "SHENZHOU-22",
        "group": "last-30-days",
        "lat": 35.52399466822914,
        "lon": 82.01233031486176,
        "alt_km": 380.4564751009166,
        "timestamp": "2025-12-10T20:49:51.345928+00:00",
        "meta_object_name": "SHENZHOU-22",
        "meta_object_id": "2025-272A",
        "meta_epoch": "2025-12-10T14:25:11.377632",
        "meta_mean_motion": 15.59037498,
        "meta_eccentricity": 0.00087682,
        "meta_inclination": 41.4683,
        "meta_ra_of_asc_node": 29.6917,
        "meta_arg_of_pericenter": 13.0632,
        "meta_mean_anomaly": 347.0432,
        "meta_ephemeris_type": 0,
        "meta_classification_type": "U",
        "meta_norad_cat_id": 66645,
        "meta_element_set_no": 999,
        "meta_rev_at_epoch": 26357,
        "meta_bstar": 0.00043760673,
        "meta_mean_motion_dot": 0.00034963,
        "meta_mean_motion_ddot": 0,
        "tle_line1": "1 66645U 25272A   25344.60082613  .00034963  00000+0  43761-3 0  9997",
        "tle_line2": "2 66645  41.4683  29.6917 0008768  13.0632 347.0432 15.59037498263570"
      },
      "geometry": {
        "type": "Point",
        "coordinates": [
          82.01233031486176,
          35.52399466822914
        ]
      }
    },
    {
      "type": "Feature",
      "properties": {
        "norad_id": 66647,
        "name": "COSMOS 2597 (RODNIK-S 22)",
        "group": "last-30-days",
        "lat": 23.98733439917246,
        "lon": -69.02786503462166,
        "alt_km": 1497.6021350315496,
        "timestamp": "2025-12-10T20:49:51.345938+00:00",
        "meta_object_name": "COSMOS 2597 (RODNIK-S 22)",
        "meta_object_id": "2025-273A",
        "meta_epoch": "2025-12-10T14:54:03.174048",
        "meta_mean_motion": 12.41951299,
        "meta_eccentricity": 0.00079363,
        "meta_inclination": 82.4985,
        "meta_ra_of_asc_node": 287.7647,
        "meta_arg_of_pericenter": 294.2078,
        "meta_mean_anomaly": 65.8171,
        "meta_ephemeris_type": 0,
        "meta_classification_type": "U",
        "meta_norad_cat_id": 66647,
        "meta_element_set_no": 999,
        "meta_rev_at_epoch": 187,
        "meta_bstar": 0.00024564696,
        "meta_mean_motion_dot": 4.3e-07,
        "meta_mean_motion_ddot": 0,
        "tle_line1": "1 66647U 25273A   25344.62087007  .00000043  00000+0  24565-3 0  9997",
        "tle_line2": "2 66647  82.4985 287.7647 0007936 294.2078  65.8171 12.41951299  1872"
      },
      "geometry": {
        "type": "Point",
        "coordinates": [
          -69.02786503462166,
          23.98733439917246
        ]
      }
    },
    {
      "type": "Feature",
      "properties": {
        "norad_id": 66648,
        "name": "COSMOS 2598 (RODNIK-S 23)",
        "group": "last-30-days",
        "lat": 50.69865971322939,
        "lon": -63.129509484164906,
        "alt_km": 1494.9303065142494,
        "timestamp": "2025-12-10T20:49:51.345948+00:00",
        "meta_object_name": "COSMOS 2598 (RODNIK-S 23)",
        "meta_object_id": "2025-273B",
        "meta_epoch": "2025-12-10T14:45:34.830144",
        "meta_mean_motion": 12.42861578,
        "meta_eccentricity": 0.00072461,
        "meta_inclination": 82.5033,
        "meta_ra_of_asc_node": 287.7712,
        "meta_arg_of_pericenter": 256.3137,
        "meta_mean_anomaly": 103.7137,
        "meta_ephemeris_type": 0,
        "meta_classification_type": "U",
        "meta_norad_cat_id": 66648,
        "meta_element_set_no": 999,
        "meta_rev_at_epoch": 187,
        "meta_bstar": 0.00011961638,
        "meta_mean_motion_dot": 2.6e-07,
        "meta_mean_motion_ddot": 0,
        "tle_line1": "1 66648U 25273B   25344.61498646  .00000026  00000+0  11962-3 0  9990",
        "tle_line2": "2 66648  82.5033 287.7712 0007246 256.3137 103.7137 12.42861578  1875"
      },
      "geometry": {
        "type": "Point",
        "coordinates": [
          -63.129509484164906,
          50.69865971322939
        ]
      }
    },
    {
      "type": "Feature",
      "properties": {
        "norad_id": 66649,
        "name": "COSMOS 2599 (RODNIK-S 24)",
        "group": "last-30-days",
        "lat": 8.827449450670294,
        "lon": -71.20088879563842,
        "alt_km": 1498.2596530646406,
        "timestamp": "2025-12-10T20:49:51.345964+00:00",
        "meta_object_name": "COSMOS 2599 (RODNIK-S 24)",
        "meta_object_id": "2025-273C",
        "meta_epoch": "2025-12-10T09:10:48.874368",
        "meta_mean_motion": 12.41671984,
        "meta_eccentricity": 0.00081363,
        "meta_inclination": 82.5026,
        "meta_ra_of_asc_node": 287.9284,
        "meta_arg_of_pericenter": 305.4049,
        "meta_mean_anomaly": 54.6269,
        "meta_ephemeris_type": 0,
        "meta_classification_type": "U",
        "meta_norad_cat_id": 66649,
        "meta_element_set_no": 999,
        "meta_rev_at_epoch": 184,
        "meta_bstar": 0.00040009668,
        "meta_mean_motion_dot": 6.4e-07,
        "meta_mean_motion_ddot": 0,
        "tle_line1": "1 66649U 25273C   25344.38251012  .00000064  00000+0  40010-3 0  9997",
        "tle_line2": "2 66649  82.5026 287.9284 0008136 305.4049  54.6269 12.41671984  1847"
      },
      "geometry": {
        "type": "Point",
        "coordinates": [
          -71.20088879563842,
          8.827449450670294
        ]
      }
    },
    {
      "type": "Feature",
      "properties": {
        "norad_id": 66650,
        "name": "BEE-1000",
        "group": "last-30-days",
        "lat": -32.99305780085024,
        "lon": -82.84514616212273,
        "alt_km": 596.2400489125766,
        "timestamp": "2025-12-10T20:49:51.345974+00:00",
        "meta_object_name": "BEE-1000",
        "meta_object_id": "2025-274A",
        "meta_epoch": "2025-12-10T12:55:49.027296",
        "meta_mean_motion": 14.91648697,
        "meta_eccentricity": 0.0010426,
        "meta_inclination": 97.7386,
        "meta_ra_of_asc_node": 271.7668,
        "meta_arg_of_pericenter": 259.8671,
        "meta_mean_anomaly": 100.1372,
        "meta_ephemeris_type": 0,
        "meta_classification_type": "U",
        "meta_norad_cat_id": 66650,
        "meta_element_set_no": 999,
        "meta_rev_at_epoch": 207,
        "meta_bstar": 0.00029688669,
        "meta_mean_motion_dot": 2.93e-05,
        "meta_mean_motion_ddot": 0,
        "tle_line1": "1 66650U 25274A   25344.53876189  .00002930  00000+0  29689-3 0  9998",
        "tle_line2": "2 66650  97.7386 271.7668 0010426 259.8671 100.1372 14.91648697  2071"
      },
      "geometry": {
        "type": "Point",
        "coordinates": [
          -82.84514616212273,
          -32.99305780085024
        ]
      }
    }
  ]
}